{
    "type": "FeatureCollection",
    "features": [
        {
            "type": "Feature",
            "properties": {
                "name": "Grand Canyon Tour Loop"
            },
            "geometry": {
                "type": "LineString",
                "coordinates": [
                    [
                        -112.1,
                        36.1
                    ],
                    [
                        -112.09,
                        36.11
                    ],
                    [
                        -112.08,
                        36.12
                    ],
                    [
                        -112.07,
                        36.11
                    ],
                    [
                        -112.06,
                        36.1
                    ],
                    [
                        -112.07,
                        36.09
                    ],
                    [
                        -112.08,
                        36.08
                    ],
                    [
                        -112.09,
                        36.09
                    ],
                    [
                        -112.1,
                        36.1
                    ]
                ]
            }
        }
    ]
}