{
    "type": "FeatureCollection",
    "features": [
        {
            "type": "Feature",
            "properties": {
                "name": "River Run"
            },
            "geometry": {
                "type": "LineString",
                "coordinates": [
                    [
                        -112.15,
                        36.05
                    ],
                    [
                        -112.14,
                        36.06
                    ],
                    [
                        -112.13,
                        36.055
                    ],
                    [
                        -112.12,
                        36.065
                    ],
                    [
                        -112.11,
                        36.06
                    ],
                    [
                        -112.10,
                        36.07
                    ],
                    [
                        -112.09,
                        36.065
                    ],
                    [
                        -112.08,
                        36.075
                    ]
                ]
            }
        }
    ]
}